[{"OBJECT_NAME":"STARLINK-32847","OBJECT_ID":"2025-018F","EPOCH":"2026-03-09T21:30:41.326560","MEAN_MOTION":15.30225795,"ECCENTRICITY":0.00011233,"INCLINATION":53.1581,"RA_OF_ASC_NODE":308.3763,"ARG_OF_PERICENTER":64.5594,"MEAN_ANOMALY":295.5523,"EPHEMERIS_TYPE":0,"CLASSIFICATION_TYPE":"U","NORAD_CAT_ID":62811,"ELEMENT_SET_NO":999,"REV_AT_EPOCH":6320,"BSTAR":0.00082171663,"MEAN_MOTION_DOT":0.00024076,"MEAN_MOTION_DDOT":0},{"OBJECT_NAME":"KUIPER-00175","OBJECT_ID":"2025-301C","EPOCH":"2026-03-09T23:30:37.840032","MEAN_MOTION":15.30996371,"ECCENTRICITY":0.00022792,"INCLINATION":51.8781,"RA_OF_ASC_NODE":63.6978,"ARG_OF_PERICENTER":50.5695,"MEAN_ANOMALY":309.549,"EPHEMERIS_TYPE":0,"CLASSIFICATION_TYPE":"U","NORAD_CAT_ID":67135,"ELEMENT_SET_NO":999,"REV_AT_EPOCH":1385,"BSTAR":0.00066732304,"MEAN_MOTION_DOT":0.00019968,"MEAN_MOTION_DDOT":0}]
